CCSDS_OMM_VERS = 2.0
CREATION_DATE  = 
ORIGINATOR     = 

OBJECT_NAME    = STARLINK-36411
OBJECT_ID      = 2026-018V
CENTER_NAME    = EARTH
REF_FRAME      = TEME
TIME_SYSTEM    = UTC
MEAN_ELEMENT_THEORY = SGP/SGP4

EPOCH          = 2026-02-06T06:00:02.000160
MEAN_MOTION    = 15.96830900
ECCENTRICITY   = .00013111
INCLINATION    = 97.2763
RA_OF_ASC_NODE = 101.3924
ARG_OF_PERICENTER = 70.4042
MEAN_ANOMALY   = 197.9945

EPHEMERIS_TYPE = 0
CLASSIFICATION_TYPE = U
NORAD_CAT_ID   = 67608
ELEMENT_SET_NO = 999
REV_AT_EPOCH   = 234
BSTAR          = -.41328619E-2
MEAN_MOTION_DOT = -.1741461E-1
MEAN_MOTION_DDOT = .88520802E-3

CCSDS_OMM_VERS = 2.0
CREATION_DATE  = 
ORIGINATOR     = 

OBJECT_NAME    = STARLINK-36312
OBJECT_ID      = 2026-018W
CENTER_NAME    = EARTH
REF_FRAME      = TEME
TIME_SYSTEM    = UTC
MEAN_ELEMENT_THEORY = SGP/SGP4

EPOCH          = 2026-02-06T06:00:02.000160
MEAN_MOTION    = 15.97026275
ECCENTRICITY   = .00014179
INCLINATION    = 97.2763
RA_OF_ASC_NODE = 101.3937
ARG_OF_PERICENTER = 66.6890
MEAN_ANOMALY   = 204.8642

EPHEMERIS_TYPE = 0
CLASSIFICATION_TYPE = U
NORAD_CAT_ID   = 67609
ELEMENT_SET_NO = 999
REV_AT_EPOCH   = 235
BSTAR          = -.40793759E-2
MEAN_MOTION_DOT = -.1737357E-1
MEAN_MOTION_DDOT = .88319457E-3

CCSDS_OMM_VERS = 2.0
CREATION_DATE  = 
ORIGINATOR     = 

OBJECT_NAME    = STARLINK-36387
OBJECT_ID      = 2026-018X
CENTER_NAME    = EARTH
REF_FRAME      = TEME
TIME_SYSTEM    = UTC
MEAN_ELEMENT_THEORY = SGP/SGP4

EPOCH          = 2026-02-06T06:00:02.000160
MEAN_MOTION    = 15.97275393
ECCENTRICITY   = .00012635
INCLINATION    = 97.2761
RA_OF_ASC_NODE = 101.3951
ARG_OF_PERICENTER = 68.3180
MEAN_ANOMALY   = 206.9681

EPHEMERIS_TYPE = 0
CLASSIFICATION_TYPE = U
NORAD_CAT_ID   = 67610
ELEMENT_SET_NO = 999
REV_AT_EPOCH   = 235
BSTAR          = -.40621862E-2
MEAN_MOTION_DOT = -.175346E-1
MEAN_MOTION_DDOT = .9010112E-3

CCSDS_OMM_VERS = 2.0
CREATION_DATE  = 
ORIGINATOR     = 

OBJECT_NAME    = STARLINK-36636
OBJECT_ID      = 2026-018Y
CENTER_NAME    = EARTH
REF_FRAME      = TEME
TIME_SYSTEM    = UTC
MEAN_ELEMENT_THEORY = SGP/SGP4

EPOCH          = 2026-02-06T06:00:02.000160
MEAN_MOTION    = 15.97446388
ECCENTRICITY   = .00013074
INCLINATION    = 97.2760
RA_OF_ASC_NODE = 101.3966
ARG_OF_PERICENTER = 76.7545
MEAN_ANOMALY   = 201.3414

EPHEMERIS_TYPE = 0
CLASSIFICATION_TYPE = U
NORAD_CAT_ID   = 67611
ELEMENT_SET_NO = 999
REV_AT_EPOCH   = 230
BSTAR          = -.39827294E-2
MEAN_MOTION_DOT = -.1735529E-1
MEAN_MOTION_DDOT = .88552061E-3

CCSDS_OMM_VERS = 2.0
CREATION_DATE  = 
ORIGINATOR     = 

OBJECT_NAME    = STARLINK-36407
OBJECT_ID      = 2026-018Z
CENTER_NAME    = EARTH
REF_FRAME      = TEME
TIME_SYSTEM    = UTC
MEAN_ELEMENT_THEORY = SGP/SGP4

EPOCH          = 2026-02-06T06:00:02.000160
MEAN_MOTION    = 15.97588564
ECCENTRICITY   = .00012531
INCLINATION    = 97.2760
RA_OF_ASC_NODE = 101.3977
ARG_OF_PERICENTER = 66.0450
MEAN_ANOMALY   = 214.4779

EPHEMERIS_TYPE = 0
CLASSIFICATION_TYPE = U
NORAD_CAT_ID   = 67612
ELEMENT_SET_NO = 999
REV_AT_EPOCH   = 239
BSTAR          = -.39366389E-2
MEAN_MOTION_DOT = -.172892E-1
MEAN_MOTION_DDOT = .88060689E-3

CCSDS_OMM_VERS = 2.0
CREATION_DATE  = 
ORIGINATOR     = 

OBJECT_NAME    = STARLINK-36597
OBJECT_ID      = 2026-018AA
CENTER_NAME    = EARTH
REF_FRAME      = TEME
TIME_SYSTEM    = UTC
MEAN_ELEMENT_THEORY = SGP/SGP4

EPOCH          = 2026-02-06T06:00:02.000160
MEAN_MOTION    = 15.97746277
ECCENTRICITY   = .00012549
INCLINATION    = 97.2755
RA_OF_ASC_NODE = 101.3987
ARG_OF_PERICENTER = 70.4155
MEAN_ANOMALY   = 212.7747

EPHEMERIS_TYPE = 0
CLASSIFICATION_TYPE = U
NORAD_CAT_ID   = 67613
ELEMENT_SET_NO = 999
REV_AT_EPOCH   = 230
BSTAR          = -.38648779E-2
MEAN_MOTION_DOT = -.1712352E-1
MEAN_MOTION_DDOT = .86640926E-3

CCSDS_OMM_VERS = 2.0
CREATION_DATE  = 
ORIGINATOR     = 

OBJECT_NAME    = NEONSAT-1A
OBJECT_ID      = 2026-019A
CENTER_NAME    = EARTH
REF_FRAME      = TEME
TIME_SYSTEM    = UTC
MEAN_ELEMENT_THEORY = SGP/SGP4

EPOCH          = 2026-02-06T07:41:00.882240
MEAN_MOTION    = 15.07560115
ECCENTRICITY   = .0011705
INCLINATION    = 97.4093
RA_OF_ASC_NODE = 162.0299
ARG_OF_PERICENTER = 283.3038
MEAN_ANOMALY   = 76.6885

EPHEMERIS_TYPE = 0
CLASSIFICATION_TYPE = U
NORAD_CAT_ID   = 67614
ELEMENT_SET_NO = 999
REV_AT_EPOCH   = 109
BSTAR          = .32637882E-3
MEAN_MOTION_DOT = .4909E-4
MEAN_MOTION_DDOT = 0

CCSDS_OMM_VERS = 2.0
CREATION_DATE  = 
ORIGINATOR     = 

OBJECT_NAME    = ELECTRON R/B
OBJECT_ID      = 2026-019B
CENTER_NAME    = EARTH
REF_FRAME      = TEME
TIME_SYSTEM    = UTC
MEAN_ELEMENT_THEORY = SGP/SGP4

EPOCH          = 2026-02-06T07:46:34.864896
MEAN_MOTION    = 15.89975614
ECCENTRICITY   = .018627
INCLINATION    = 97.4330
RA_OF_ASC_NODE = 162.8702
ARG_OF_PERICENTER = 200.6527
MEAN_ANOMALY   = 158.7150

EPHEMERIS_TYPE = 0
CLASSIFICATION_TYPE = U
NORAD_CAT_ID   = 67615
ELEMENT_SET_NO = 999
REV_AT_EPOCH   = 114
BSTAR          = .15125235E-2
MEAN_MOTION_DOT = .2361956E-1
MEAN_MOTION_DDOT = .2179284E-5

CCSDS_OMM_VERS = 2.0
CREATION_DATE  = 
ORIGINATOR     = 

OBJECT_NAME    = ELECTRON KICK STAGE R/B
OBJECT_ID      = 2026-019C
CENTER_NAME    = EARTH
REF_FRAME      = TEME
TIME_SYSTEM    = UTC
MEAN_ELEMENT_THEORY = SGP/SGP4

EPOCH          = 2026-02-06T07:00:43.917408
MEAN_MOTION    = 15.57439711
ECCENTRICITY   = .01964735
INCLINATION    = 97.4061
RA_OF_ASC_NODE = 162.5200
ARG_OF_PERICENTER = 236.1471
MEAN_ANOMALY   = 122.0953

EPHEMERIS_TYPE = 0
CLASSIFICATION_TYPE = U
NORAD_CAT_ID   = 67616
ELEMENT_SET_NO = 999
REV_AT_EPOCH   = 112
BSTAR          = .18404733E-2
MEAN_MOTION_DOT = .340517E-2
MEAN_MOTION_DDOT = .3287991E-4

CCSDS_OMM_VERS = 2.0
CREATION_DATE  = 
ORIGINATOR     = 

OBJECT_NAME    = STARLINK-36548
OBJECT_ID      = 2026-020A
CENTER_NAME    = EARTH
REF_FRAME      = TEME
TIME_SYSTEM    = UTC
MEAN_ELEMENT_THEORY = SGP/SGP4

EPOCH          = 2026-02-06T06:00:02.000160
MEAN_MOTION    = 15.91186247
ECCENTRICITY   = .00014493
INCLINATION    = 42.9999
RA_OF_ASC_NODE = 333.6556
ARG_OF_PERICENTER = 260.2292
MEAN_ANOMALY   = 313.4207

EPHEMERIS_TYPE = 0
CLASSIFICATION_TYPE = U
NORAD_CAT_ID   = 67617
ELEMENT_SET_NO = 999
REV_AT_EPOCH   = 233
BSTAR          = -.52894917E-2
MEAN_MOTION_DOT = -.1735626E-1
MEAN_MOTION_DDOT = .82356979E-3

CCSDS_OMM_VERS = 2.0
CREATION_DATE  = 
ORIGINATOR     = 

OBJECT_NAME    = STARLINK-36601
OBJECT_ID      = 2026-020B
CENTER_NAME    = EARTH
REF_FRAME      = TEME
TIME_SYSTEM    = UTC
MEAN_ELEMENT_THEORY = SGP/SGP4

EPOCH          = 2026-02-06T06:00:02.000160
MEAN_MOTION    = 15.91307931
ECCENTRICITY   = .00015504
INCLINATION    = 43.0002
RA_OF_ASC_NODE = 333.6511
ARG_OF_PERICENTER = 265.6291
MEAN_ANOMALY   = 309.8360

EPHEMERIS_TYPE = 0
CLASSIFICATION_TYPE = U
NORAD_CAT_ID   = 67618
ELEMENT_SET_NO = 999
REV_AT_EPOCH   = 233
BSTAR          = -.5251237E-2
MEAN_MOTION_DOT = -.1733968E-1
MEAN_MOTION_DDOT = .82308355E-3

CCSDS_OMM_VERS = 2.0
CREATION_DATE  = 
ORIGINATOR     = 

OBJECT_NAME    = STARLINK-36119
OBJECT_ID      = 2026-020C
CENTER_NAME    = EARTH
REF_FRAME      = TEME
TIME_SYSTEM    = UTC
MEAN_ELEMENT_THEORY = SGP/SGP4

EPOCH          = 2026-02-06T06:00:02.000160
MEAN_MOTION    = 15.91387085
ECCENTRICITY   = .00014648
INCLINATION    = 43.0001
RA_OF_ASC_NODE = 333.6475
ARG_OF_PERICENTER = 263.3047
MEAN_ANOMALY   = 313.5321

EPHEMERIS_TYPE = 0
CLASSIFICATION_TYPE = U
NORAD_CAT_ID   = 67619
ELEMENT_SET_NO = 999
REV_AT_EPOCH   = 233
BSTAR          = -.52087309E-2
MEAN_MOTION_DOT = -.1727046E-1
MEAN_MOTION_DDOT = .81765205E-3

