STARLINK-36411          
1 67608U 26018V   26037.25002315 -.01741461  88521-3 -41329-2 0  9994
2 67608  97.2763 101.3924 0001311  70.4042 197.9945 15.96830900  2340
STARLINK-36312          
1 67609U 26018W   26037.25002315 -.01737357  88319-3 -40794-2 0  9994
2 67609  97.2763 101.3937 0001417  66.6890 204.8642 15.97026275  2356
STARLINK-36387          
1 67610U 26018X   26037.25002315 -.01753460  90101-3 -40622-2 0  9991
2 67610  97.2761 101.3951 0001263  68.3180 206.9681 15.97275393  2355
STARLINK-36636          
1 67611U 26018Y   26037.25002315 -.01735529  88552-3 -39827-2 0  9990
2 67611  97.2760 101.3966 0001307  76.7545 201.3414 15.97446388  2300
STARLINK-36407          
1 67612U 26018Z   26037.25002315 -.01728920  88061-3 -39366-2 0  9991
2 67612  97.2760 101.3977 0001253  66.0450 214.4779 15.97588564  2391
STARLINK-36597          
1 67613U 26018AA  26037.25002315 -.01712352  86641-3 -38649-2 0  9999
2 67613  97.2755 101.3987 0001254  70.4155 212.7747 15.97746277  2303
NEONSAT-1A              
1 67614U 26019A   26037.32014910  .00004909  00000+0  32638-3 0  9996
2 67614  97.4093 162.0299 0011705 283.3038  76.6885 15.07560115  1099
ELECTRON R/B            
1 67615U 26019B   26037.32401464  .02361956  21793-5  15125-2 0  9990
2 67615  97.4330 162.8702 0186270 200.6527 158.7150 15.89975614  1143
ELECTRON KICK STAGE R/B 
1 67616U 26019C   26037.29217497  .00340517  32880-4  18405-2 0  9998
2 67616  97.4061 162.5200 0196473 236.1471 122.0953 15.57439711  1124
STARLINK-36548          
1 67617U 26020A   26037.25002315 -.01735626  82357-3 -52895-2 0  9994
2 67617  42.9999 333.6556 0001449 260.2292 313.4207 15.91186247  2335
STARLINK-36601          
1 67618U 26020B   26037.25002315 -.01733968  82308-3 -52512-2 0  9994
2 67618  43.0002 333.6511 0001550 265.6291 309.8360 15.91307931  2339
STARLINK-36119          
1 67619U 26020C   26037.25002315 -.01727046  81765-3 -52087-2 0  9998
2 67619  43.0001 333.6475 0001464 263.3047 313.5321 15.91387085  2333
